{"type": "FeatureCollection", "features": [ {"type": "Feature", "properties": {"norad_id": 66816, "name": "STARLINK-36098", "group": "last-30-days", "lat": -41.74770326822433, "lon": 156.43616720988067, "alt_km": 343.7162276567715, "timestamp": "2025-12-16T08:59:41.908213+00:00", "meta": {"OBJECT_NAME": "STARLINK-36098", "OBJECT_ID": "2025-278AB", "EPOCH": "2025-12-15T22:00:01.999584", "MEAN_MOTION": 15.77523123, "ECCENTRICITY": 0.00014394, "INCLINATION": 42.9982, "RA_OF_ASC_NODE": 232.5205, "ARG_OF_PERICENTER": 278.1352, "MEAN_ANOMALY": 280.7251, "EPHEMERIS_TYPE": 0, "CLASSIFICATION_TYPE": "U", "NORAD_CAT_ID": 66816, "ELEMENT_SET_NO": 999, "REV_AT_EPOCH": 331, "BSTAR": -0.009789463, "MEAN_MOTION_DOT": -0.01480173, "MEAN_MOTION_DDOT": 0}, "tle": {"line1": "1 66816U 25278AB  25349.91668981 -.01480173  00000+0 -97895-2 0  9997", "line2": "2 66816  42.9982 232.5205 0001439 278.1352 280.7251 15.77523123  3315"}}, "geometry": {"type": "Point", "coordinates": [156.43616720988067, -41.74770326822433]}}, {"type": "Feature", "properties": {"norad_id": 66817, "name": "STARLINK-35995", "group": "last-30-days", "lat": -40.83864063885821, "lon": 161.65263527814426, "alt_km": 344.2366567675981, "timestamp": "2025-12-16T08:59:41.908223+00:00", "meta": {"OBJECT_NAME": "STARLINK-35995", "OBJECT_ID": "2025-278AC", "EPOCH": "2025-12-15T22:00:01.999584", "MEAN_MOTION": 15.77357158, "ECCENTRICITY": 0.00013989, "INCLINATION": 42.9982, "RA_OF_ASC_NODE": 232.5093, "ARG_OF_PERICENTER": 276.8913, "MEAN_ANOMALY": 286.2946, "EPHEMERIS_TYPE": 0, "CLASSIFICATION_TYPE": "U", "NORAD_CAT_ID": 66817, "ELEMENT_SET_NO": 999, "REV_AT_EPOCH": 346, "BSTAR": -0.0099944377, "MEAN_MOTION_DOT": -0.01497456, "MEAN_MOTION_DDOT": 0}, "tle": {"line1": "1 66817U 25278AC  25349.91668981 -.01497456  00000+0 -99944-2 0  9997", "line2": "2 66817  42.9982 232.5093 0001398 276.8913 286.2946 15.77357158  3464"}}, "geometry": {"type": "Point", "coordinates": [161.65263527814426, -40.83864063885821]}}, {"type": "Feature", "properties": {"norad_id": 66818, "name": "STARLINK-35994", "group": "last-30-days", "lat": -41.312756427455746, "lon": 159.1208669257348, "alt_km": 344.11020156656286, "timestamp": "2025-12-16T08:59:41.908233+00:00", "meta": {"OBJECT_NAME": "STARLINK-35994", "OBJECT_ID": "2025-278AD", "EPOCH": "2025-12-15T22:00:01.999584", "MEAN_MOTION": 15.77411274, "ECCENTRICITY": 0.00014238, "INCLINATION": 42.9984, "RA_OF_ASC_NODE": 232.5146, "ARG_OF_PERICENTER": 265.834, "MEAN_ANOMALY": 295.2793, "EPHEMERIS_TYPE": 0, "CLASSIFICATION_TYPE": "U", "NORAD_CAT_ID": 66818, "ELEMENT_SET_NO": 999, "REV_AT_EPOCH": 346, "BSTAR": -0.0099209333, "MEAN_MOTION_DOT": -0.01490989, "MEAN_MOTION_DDOT": 0}, "tle": {"line1": "1 66818U 25278AD  25349.91668981 -.01490989  00000+0 -99209-2 0  9996", "line2": "2 66818  42.9984 232.5146 0001423 265.8340 295.2793 15.77411274  3467"}}, "geometry": {"type": "Point", "coordinates": [159.1208669257348, -41.312756427455746]}}, {"type": "Feature", "properties": {"norad_id": 66819, "name": "STARLINK-35989", "group": "last-30-days", "lat": -40.30564153607713, "lon": 164.1664951221467, "alt_km": 344.39531749678827, "timestamp": "2025-12-16T08:59:41.908244+00:00", "meta": {"OBJECT_NAME": "STARLINK-35989", "OBJECT_ID": "2025-278AE", "EPOCH": "2025-12-15T22:00:01.999584", "MEAN_MOTION": 15.77277983, "ECCENTRICITY": 0.00013134, "INCLINATION": 42.9985, "RA_OF_ASC_NODE": 232.5035, "ARG_OF_PERICENTER": 274.0957, "MEAN_ANOMALY": 291.1715, "EPHEMERIS_TYPE": 0, "CLASSIFICATION_TYPE": "U", "NORAD_CAT_ID": 66819, "ELEMENT_SET_NO": 999, "REV_AT_EPOCH": 346, "BSTAR": -0.0097229068, "MEAN_MOTION_DOT": -0.01456917, "MEAN_MOTION_DDOT": 0}, "tle": {"line1": "1 66819U 25278AE  25349.91668981 -.01456917  00000+0 -97229-2 0  9990", "line2": "2 66819  42.9985 232.5035 0001313 274.0957 291.1715 15.77277983  3466"}}, "geometry": {"type": "Point", "coordinates": [164.1664951221467, -40.30564153607713]}}, {"type": "Feature", "properties": {"norad_id": 66820, "name": "KOMPSAT-7", "group": "last-30-days", "lat": 30.843272763348615, "lon": 120.76840746708794, "alt_km": 565.7525920151484, "timestamp": "2025-12-16T08:59:41.908254+00:00", "meta": {"OBJECT_NAME": "KOMPSAT-7", "OBJECT_ID": "2025-279A", "EPOCH": "2025-12-14T22:41:19.689792", "MEAN_MOTION": 14.98965885, "ECCENTRICITY": 0.00087651, "INCLINATION": 97.6417, "RA_OF_ASC_NODE": 294.7686, "ARG_OF_PERICENTER": 217.2843, "MEAN_ANOMALY": 142.7773, "EPHEMERIS_TYPE": 0, "CLASSIFICATION_TYPE": "U", "NORAD_CAT_ID": 66820, "ELEMENT_SET_NO": 999, "REV_AT_EPOCH": 198, "BSTAR": 0.00023616624, "MEAN_MOTION_DOT": 2.802e-05, "MEAN_MOTION_DDOT": 0}, "tle": {"line1": "1 66820U 25279A   25348.94536678  .00002802  00000+0  23617-3 0  9990", "line2": "2 66820  97.6417 294.7686 0008765 217.2843 142.7773 14.98965885  1985"}}, "geometry": {"type": "Point", "coordinates": [120.76840746708794, 30.843272763348615]}}, {"type": "Feature", "properties": {"norad_id": 66821, "name": "STARLINK-35966", "group": "last-30-days", "lat": 63.66357346506988, "lon": -124.05900378263873, "alt_km": 362.9051758972382, "timestamp": "2025-12-16T08:59:41.908279+00:00", "meta": {"OBJECT_NAME": "STARLINK-35966", "OBJECT_ID": "2025-280A", "EPOCH": "2025-12-15T22:00:01.999584", "MEAN_MOTION": 15.68861183, "ECCENTRICITY": 0.00039572, "INCLINATION": 69.9986, "RA_OF_ASC_NODE": 189.8453, "ARG_OF_PERICENTER": 273.2162, "MEAN_ANOMALY": 94.3454, "EPHEMERIS_TYPE": 0, "CLASSIFICATION_TYPE": "U", "NORAD_CAT_ID": 66821, "ELEMENT_SET_NO": 999, "REV_AT_EPOCH": 340, "BSTAR": -0.018292, "MEAN_MOTION_DOT": -0.01838186, "MEAN_MOTION_DDOT": 0}, "tle": {"line1": "1 66821U 25280A   25349.91668981 -.01838186  00000+0 -18292-1 0  9990", "line2": "2 66821  69.9986 189.8453 0003957 273.2162  94.3454 15.68861183  3400"}}, "geometry": {"type": "Point", "coordinates": [-124.05900378263873, 63.66357346506988]}}, {"type": "Feature", "properties": {"norad_id": 66822, "name": "STARLINK-35958", "group": "last-30-days", "lat": 64.83286151094339, "lon": -120.61207090251483, "alt_km": 362.76034647157394, "timestamp": "2025-12-16T08:59:41.908290+00:00", "meta": {"OBJECT_NAME": "STARLINK-35958", "OBJECT_ID": "2025-280B", "EPOCH": "2025-12-15T22:00:01.999584", "MEAN_MOTION": 15.68895165, "ECCENTRICITY": 0.0003703, "INCLINATION": 69.9986, "RA_OF_ASC_NODE": 189.8436, "ARG_OF_PERICENTER": 272.6915, "MEAN_ANOMALY": 96.7776, "EPHEMERIS_TYPE": 0, "CLASSIFICATION_TYPE": "U", "NORAD_CAT_ID": 66822, "ELEMENT_SET_NO": 999, "REV_AT_EPOCH": 340, "BSTAR": -0.019043085, "MEAN_MOTION_DOT": -0.01944536, "MEAN_MOTION_DDOT": 0}, "tle": {"line1": "1 66822U 25280B   25349.91668981 -.01944536  00000+0 -19043-1 0  9993", "line2": "2 66822  69.9986 189.8436 0003703 272.6915  96.7776 15.68895165  3400"}}, "geometry": {"type": "Point", "coordinates": [-120.61207090251483, 64.83286151094339]}}, {"type": "Feature", "properties": {"norad_id": 66823, "name": "STARLINK-35957", "group": "last-30-days", "lat": 65.93322562360271, "lon": -116.79539123800069, "alt_km": 362.64481237339805, "timestamp": "2025-12-16T08:59:41.908303+00:00", "meta": {"OBJECT_NAME": "STARLINK-35957", "OBJECT_ID": "2025-280C", "EPOCH": "2025-12-15T22:00:01.999584", "MEAN_MOTION": 15.688646, "ECCENTRICITY": 0.00038203, "INCLINATION": 69.9983, "RA_OF_ASC_NODE": 189.8413, "ARG_OF_PERICENTER": 272.865, "MEAN_ANOMALY": 98.5248, "EPHEMERIS_TYPE": 0, "CLASSIFICATION_TYPE": "U", "NORAD_CAT_ID": 66823, "ELEMENT_SET_NO": 999, "REV_AT_EPOCH": 340, "BSTAR": -0.018331797, "MEAN_MOTION_DOT": -0.0184175, "MEAN_MOTION_DDOT": 0}, "tle": {"line1": "1 66823U 25280C   25349.91668981 -.01841750  00000+0 -18332-1 0  9998", "line2": "2 66823  69.9983 189.8413 0003820 272.8650  98.5248 15.68864600  3405"}}, "geometry": {"type": "Point", "coordinates": [-116.79539123800069, 65.93322562360271]}}, {"type": "Feature", "properties": {"norad_id": 66824, "name": "STARLINK-35896", "group": "last-30-days", "lat": 66.91960881506101, "lon": -112.70460309749423, "alt_km": 362.7195921696648, "timestamp": "2025-12-16T08:59:41.908314+00:00", "meta": {"OBJECT_NAME": "STARLINK-35896", "OBJECT_ID": "2025-280D", "EPOCH": "2025-12-15T22:00:01.999584", "MEAN_MOTION": 15.68871378, "ECCENTRICITY": 0.00039554, "INCLINATION": 69.9985, "RA_OF_ASC_NODE": 189.8394, "ARG_OF_PERICENTER": 272.2985, "MEAN_ANOMALY": 101.0097, "EPHEMERIS_TYPE": 0, "CLASSIFICATION_TYPE": "U", "NORAD_CAT_ID": 66824, "ELEMENT_SET_NO": 999, "REV_AT_EPOCH": 340, "BSTAR": -0.018582819, "MEAN_MOTION_DOT": -0.01901362, "MEAN_MOTION_DDOT": 0}, "tle": {"line1": "1 66824U 25280D   25349.91668981 -.01901362  00000+0 -18583-1 0  9993", "line2": "2 66824  69.9985 189.8394 0003955 272.2985 101.0097 15.68871378  3402"}}, "geometry": {"type": "Point", "coordinates": [-112.70460309749423, 66.91960881506101]}}, {"type": "Feature", "properties": {"norad_id": 66825, "name": "STARLINK-35476", "group": "last-30-days", "lat": 67.79393107891988, "lon": -108.27955801707303, "alt_km": 362.5855336345476, "timestamp": "2025-12-16T08:59:41.908324+00:00", "meta": {"OBJECT_NAME": "STARLINK-35476", "OBJECT_ID": "2025-280E", "EPOCH": "2025-12-15T22:00:01.999584", "MEAN_MOTION": 15.68897898, "ECCENTRICITY": 0.00038403, "INCLINATION": 69.9986, "RA_OF_ASC_NODE": 189.8367, "ARG_OF_PERICENTER": 277.4575, "MEAN_ANOMALY": 97.7603, "EPHEMERIS_TYPE": 0, "CLASSIFICATION_TYPE": "U", "NORAD_CAT_ID": 66825, "ELEMENT_SET_NO": 999, "REV_AT_EPOCH": 326, "BSTAR": -0.019095244, "MEAN_MOTION_DOT": -0.01949585, "MEAN_MOTION_DDOT": 0}, "tle": {"line1": "1 66825U 25280E   25349.91668981 -.01949585  00000+0 -19095-1 0  9992", "line2": "2 66825  69.9986 189.8367 0003840 277.4575  97.7603 15.68897898  3262"}}, "geometry": {"type": "Point", "coordinates": [-108.27955801707303, 67.79393107891988]}}]}